{
  "type": "FeatureCollection",
  "features": [
    {
      "type": "Feature",
      "properties": {
        "norad_id": 64751,
        "name": "PROGRESS-MS 31",
        "group": "stations",
        "lat": -40.04184249110509,
        "lon": -39.71724712107772,
        "alt_km": 420.31681637146175,
        "timestamp": "2025-12-21T14:40:46.667318+00:00",
        "meta_object_name": "PROGRESS-MS 31",
        "meta_object_id": "2025-146A",
        "meta_epoch": "2025-12-21T04:22:59.119680",
        "meta_mean_motion": 15.49696285,
        "meta_eccentricity": 0.00031756,
        "meta_inclination": 51.6324,
        "meta_ra_of_asc_node": 100.6685,
        "meta_arg_of_pericenter": 279.9061,
        "meta_mean_anomaly": 80.1569,
        "meta_ephemeris_type": 0,
        "meta_classification_type": "U",
        "meta_norad_cat_id": 64751,
        "meta_element_set_no": 999,
        "meta_rev_at_epoch": 675,
        "meta_bstar": 0.00015703459,
        "meta_mean_motion_dot": 8.423e-05,
        "meta_mean_motion_ddot": 0,
        "tle_line1": "1 64751U 25146A   25355.18262870  .00008423  00000+0  15703-3 0  9990",
        "tle_line2": "2 64751  51.6324 100.6685 0003175 279.9061  80.1569 15.49696285  6754"
      },
      "geometry": {
        "type": "Point",
        "coordinates": [
          -39.71724712107772,
          -40.04184249110509
        ]
      }
    },
    {
      "type": "Feature",
      "properties": {
        "norad_id": 64786,
        "name": "TIANZHOU-9",
        "group": "stations",
        "lat": -19.165122050570563,
        "lon": -60.345528533055365,
        "alt_km": 394.58879417276694,
        "timestamp": "2025-12-21T14:40:46.667328+00:00",
        "meta_object_name": "TIANZHOU-9",
        "meta_object_id": "2025-149A",
        "meta_epoch": "2025-12-21T05:35:06.684000",
        "meta_mean_motion": 15.59524435,
        "meta_eccentricity": 0.00077499,
        "meta_inclination": 41.4687,
        "meta_ra_of_asc_node": 325.1329,
        "meta_arg_of_pericenter": 105.4926,
        "meta_mean_anomaly": 254.6769,
        "meta_ephemeris_type": 0,
        "meta_classification_type": "U",
        "meta_norad_cat_id": 64786,
        "meta_element_set_no": 999,
        "meta_rev_at_epoch": 25530,
        "meta_bstar": 0.00019872404,
        "meta_mean_motion_dot": 0.00015946,
        "meta_mean_motion_ddot": 0,
        "tle_line1": "1 64786U 25149A   25355.23271625  .00015946  00000+0  19872-3 0  9994",
        "tle_line2": "2 64786  41.4687 325.1329 0007749 105.4926 254.6769 15.59524435255309"
      },
      "geometry": {
        "type": "Point",
        "coordinates": [
          -60.345528533055365,
          -19.165122050570563
        ]
      }
    },
    {
      "type": "Feature",
      "properties": {
        "norad_id": 65077,
        "name": "CREW DRAGON 11",
        "group": "stations",
        "lat": -40.041843246142676,
        "lon": -39.71724575447004,
        "alt_km": 420.3168163697346,
        "timestamp": "2025-12-21T14:40:46.667338+00:00",
        "meta_object_name": "CREW DRAGON 11",
        "meta_object_id": "2025-166A",
        "meta_epoch": "2025-12-21T04:22:59.119680",
        "meta_mean_motion": 15.49696285,
        "meta_eccentricity": 0.00031756,
        "meta_inclination": 51.6324,
        "meta_ra_of_asc_node": 100.6685,
        "meta_arg_of_pericenter": 279.9061,
        "meta_mean_anomaly": 80.1569,
        "meta_ephemeris_type": 0,
        "meta_classification_type": "U",
        "meta_norad_cat_id": 65077,
        "meta_element_set_no": 999,
        "meta_rev_at_epoch": 214,
        "meta_bstar": 0.00015703459,
        "meta_mean_motion_dot": 8.423e-05,
        "meta_mean_motion_ddot": 0,
        "tle_line1": "1 65077U 25166A   25355.18262870  .00008423  00000+0  15703-3 0  9994",
        "tle_line2": "2 65077  51.6324 100.6685 0003175 279.9061  80.1569 15.49696285  2145"
      },
      "geometry": {
        "type": "Point",
        "coordinates": [
          -39.71724575447004,
          -40.041843246142676
        ]
      }
    },
    {
      "type": "Feature",
      "properties": {
        "norad_id": 65304,
        "name": "DRAGON CRS-33",
        "group": "stations",
        "lat": -40.041843623661435,
        "lon": -39.71724507116624,
        "alt_km": 420.3168163688724,
        "timestamp": "2025-12-21T14:40:46.667348+00:00",
        "meta_object_name": "DRAGON CRS-33",
        "meta_object_id": "2025-186A",
        "meta_epoch": "2025-12-21T04:22:59.119680",
        "meta_mean_motion": 15.49696285,
        "meta_eccentricity": 0.00031756,
        "meta_inclination": 51.6324,
        "meta_ra_of_asc_node": 100.6685,
        "meta_arg_of_pericenter": 279.9061,
        "meta_mean_anomaly": 80.1569,
        "meta_ephemeris_type": 0,
        "meta_classification_type": "U",
        "meta_norad_cat_id": 65304,
        "meta_element_set_no": 999,
        "meta_rev_at_epoch": 11,
        "meta_bstar": 0.00015703459,
        "meta_mean_motion_dot": 8.423e-05,
        "meta_mean_motion_ddot": 0,
        "tle_line1": "1 65304U 25186A   25355.18262870  .00008423  00000+0  15703-3 0  9999",
        "tle_line2": "2 65304  51.6324 100.6685 0003175 279.9061  80.1569 15.49696285   113"
      },
      "geometry": {
        "type": "Point",
        "coordinates": [
          -39.71724507116624,
          -40.041843623661435
        ]
      }
    },
    {
      "type": "Feature",
      "properties": {
        "norad_id": 65586,
        "name": "PROGRESS-MS 32",
        "group": "stations",
        "lat": -40.04184407668452,
        "lon": -39.71724425120064,
        "alt_km": 420.3168163678365,
        "timestamp": "2025-12-21T14:40:46.667360+00:00",
        "meta_object_name": "PROGRESS-MS 32",
        "meta_object_id": "2025-204A",
        "meta_epoch": "2025-12-21T04:22:59.119680",
        "meta_mean_motion": 15.49696285,
        "meta_eccentricity": 0.00031756,
        "meta_inclination": 51.6324,
        "meta_ra_of_asc_node": 100.6685,
        "meta_arg_of_pericenter": 279.9061,
        "meta_mean_anomaly": 80.1569,
        "meta_ephemeris_type": 0,
        "meta_classification_type": "U",
        "meta_norad_cat_id": 65586,
        "meta_element_set_no": 999,
        "meta_rev_at_epoch": 27,
        "meta_bstar": 0.00015703459,
        "meta_mean_motion_dot": 8.423e-05,
        "meta_mean_motion_ddot": 0,
        "tle_line1": "1 65586U 25204A   25355.18262870  .00008423  00000+0  15703-3 0  9992",
        "tle_line2": "2 65586  51.6324 100.6685 0003175 279.9061  80.1569 15.49696285   272"
      },
      "geometry": {
        "type": "Point",
        "coordinates": [
          -39.71724425120064,
          -40.04184407668452
        ]
      }
    },
    {
      "type": "Feature",
      "properties": {
        "norad_id": 65616,
        "name": "CYGNUS NG-23",
        "group": "stations",
        "lat": -40.041844454203314,
        "lon": -39.71724356789672,
        "alt_km": 420.3168163669716,
        "timestamp": "2025-12-21T14:40:46.667370+00:00",
        "meta_object_name": "CYGNUS NG-23",
        "meta_object_id": "2025-208A",
        "meta_epoch": "2025-12-21T04:22:59.119680",
        "meta_mean_motion": 15.49696285,
        "meta_eccentricity": 0.00031756,
        "meta_inclination": 51.6324,
        "meta_ra_of_asc_node": 100.6685,
        "meta_arg_of_pericenter": 279.9061,
        "meta_mean_anomaly": 80.1569,
        "meta_ephemeris_type": 0,
        "meta_classification_type": "U",
        "meta_norad_cat_id": 65616,
        "meta_element_set_no": 999,
        "meta_rev_at_epoch": 22,
        "meta_bstar": 0.00015703459,
        "meta_mean_motion_dot": 8.423e-05,
        "meta_mean_motion_ddot": 0,
        "tle_line1": "1 65616U 25208A   25355.18262870  .00008423  00000+0  15703-3 0  9990",
        "tle_line2": "2 65616  51.6324 100.6685 0003175 279.9061  80.1569 15.49696285   221"
      },
      "geometry": {
        "type": "Point",
        "coordinates": [
          -39.71724356789672,
          -40.041844454203314
        ]
      }
    },
    {
      "type": "Feature",
      "properties": {
        "norad_id": 65729,
        "name": "DRAGONFLY",
        "group": "stations",
        "lat": -48.776702869553915,
        "lon": -25.01310695914782,
        "alt_km": 348.68985317265924,
        "timestamp": "2025-12-21T14:40:46.667380+00:00",
        "meta_object_name": "DRAGONFLY",
        "meta_object_id": "1998-067XH",
        "meta_epoch": "2025-12-20T23:53:54.949632",
        "meta_mean_motion": 15.74592316,
        "meta_eccentricity": 0.0007599,
        "meta_inclination": 51.6248,
        "meta_ra_of_asc_node": 93.4014,
        "meta_arg_of_pericenter": 329.0075,
        "meta_mean_anomaly": 31.0474,
        "meta_ephemeris_type": 0,
        "meta_classification_type": "U",
        "meta_norad_cat_id": 65729,
        "meta_element_set_no": 999,
        "meta_rev_at_epoch": 1446,
        "meta_bstar": 0.00097794606,
        "meta_mean_motion_dot": 0.0014816,
        "meta_mean_motion_ddot": 0,
        "tle_line1": "1 65729U 98067XH  25354.99577488  .00148160  00000+0  97795-3 0  9994",
        "tle_line2": "2 65729  51.6248  93.4014 0007599 329.0075  31.0474 15.74592316 14461"
      },
      "geometry": {
        "type": "Point",
        "coordinates": [
          -25.01310695914782,
          -48.776702869553915
        ]
      }
    }
  ]
}